[{"OBJECT_NAME":"STARLINK-3769","OBJECT_ID":"2022-041AR","EPOCH":"2026-03-09T11:00:51.391296","MEAN_MOTION":15.08838223,"ECCENTRICITY":0.00013316,"INCLINATION":53.2177,"RA_OF_ASC_NODE":100.1565,"ARG_OF_PERICENTER":96.7246,"MEAN_ANOMALY":263.3898,"EPHEMERIS_TYPE":0,"CLASSIFICATION_TYPE":"U","NORAD_CAT_ID":52300,"ELEMENT_SET_NO":999,"REV_AT_EPOCH":21569,"BSTAR":-1.1850674e-5,"MEAN_MOTION_DOT":-4.76e-6,"MEAN_MOTION_DDOT":0},{"OBJECT_NAME":"CZ-4C DEB","OBJECT_ID":"2010-038E","EPOCH":"2026-03-08T13:52:01.201152","MEAN_MOTION":14.99820212,"ECCENTRICITY":0.00772359,"INCLINATION":97.9453,"RA_OF_ASC_NODE":199.3713,"ARG_OF_PERICENTER":309.8702,"MEAN_ANOMALY":49.5744,"EPHEMERIS_TYPE":0,"CLASSIFICATION_TYPE":"U","NORAD_CAT_ID":37569,"ELEMENT_SET_NO":999,"REV_AT_EPOCH":82446,"BSTAR":0.0019249603,"MEAN_MOTION_DOT":0.00025376,"MEAN_MOTION_DDOT":0}]
